ICEYE-X53               
1 64584U 25135BJ  26204.82530252  .00003828  00000+0  30516-3 0  9992
2 64584  97.7347 321.4435 0002315 163.0267 197.1035 15.00931504 59574
ICEYE-X65               
1 66300U 25248H   26204.32181025  .00002964  00000+0  20571-3 0  9990
2 66300  45.4055 304.1629 0006217 239.4737 120.5532 15.07967302 40974
ICEYE-X66               
1 66301U 25248J   26204.31276159  .00003133  00000+0  20939-3 0  9990
2 66301  45.4021 303.2063 0005834 235.4755 124.5576 15.09219337 40961
ICEYE-X67               
1 66302U 25248K   26204.66851314  .00003516  00000+0  23312-3 0  9994
2 66302  45.4055 300.9147 0007355 238.2935 121.7230 15.09203163 41032
ICEYE-X58               
1 66751U 25276CP  26204.65487490  .00002569  00000+0  13207-3 0  9991
2 66751  97.4188 277.3593 0003021 179.2265 180.8974 15.17340706 35940
ICEYE-X59               
1 66752U 25276CQ  26204.61339594  .00004338  00000+0  34598-3 0  9991
2 66752  97.4409 274.3552 0001508 125.4291 234.7074 15.00808188 35731
ICEYE-X60               
1 66753U 25276CR  26202.42565852  .00004036  00000+0  24564-3 0  9994
2 66753  97.4208 274.0787 0002125 166.7579 193.3708 15.10963354 35539
ICEYE-X61               
1 66754U 25276CS  26204.46813263  .00002866  00000+0  14162-3 0  9995
2 66754  97.4183 277.2816 0002933 181.3523 178.7704 15.18643479 35926
ICEYE-X62               
1 66755U 25276CT  26204.64027698  .00005275  00000+0  32649-3 0  9992
2 66755  97.4177 275.7063 0001467 194.1996 165.9193 15.10212575 35835
ICEYE-X63               
1 67372U 26004K   26204.45355566  .00000827  00000+0  95232-4 0  9991
2 67372  97.8020 202.5294 0004858  30.3016 329.8480 14.88360516 28696
ICEYE-X64               
1 67373U 26004L   26203.69731545  .00000898  00000+0  10379-3 0  9998
2 67373  97.8032 201.7010 0006732  33.5498 326.6144 14.87999271 28573
ICEYE-X71               
1 68494U 26067CG  26204.83335647  .00072331  00000+0  69659-2 0  9997
2 68494  97.7617 162.5095 0000751 275.9507 152.2229 14.92595369  5771
ICEYE-X73               
1 68496U 26067CJ  26204.84420203  .00002447  00000+0  24461-3 0  9997
2 68496  97.7627 162.6147 0002165 134.8118 225.3277 14.92379964 17190
ICEYE-X75               
1 68497U 26067CK  26204.84973536  .00001064  00000+0  10994-3 0  9990
2 68497  97.7612 162.5833 0002144 130.7532 229.3874 14.92188888 17198
ICEYE-X74               
1 68500U 26067CN  26204.34933003  .00002102  00000+0  21379-3 0  9998
2 68500  97.7638 162.0455 0000342 236.0047 124.1140 14.91820341 17111
ICEYE-X76               
1 68502U 26067CQ  26204.81502274  .00000851  00000+0  90021-4 0  9994
2 68502  97.7645 162.5224 0000639 206.2099 153.9088 14.91762875 17180
